NORAD_CAT_ID,OBJECT_NAME,OBJECT_TYPE,EPOCH,MEAN_MOTION,ECCENTRICITY,INCLINATION,RA_OF_ASC_NODE,ARG_OF_PERICENTER,MEAN_ANOMALY,BSTAR,MEAN_MOTION_DOT,MEAN_MOTION_DDOT,TLE_LINE0,TLE_LINE1,TLE_LINE2,SEMIMAJOR_AXIS,PERIOD,APOGEE,PERIGEE,DECAYED
54073.0,STARLINK-5146,PAYLOAD,2023-09-06 02:00:27,15.08843353,0.0001259,53.2168,129.0929,103.1983,256.915,0.00012186,1.652e-05,0.0,0 STARLINK-5146,1 54073U 22136Y   23249.08365215  .00001652  00000-0  12186-3 0  9998,2 54073  53.2168 129.0929 0001259 103.1983 256.9150 15.08843353 48695,6917.87,95.437,540.606,538.864,0.0
54073.0,STARLINK-5146,PAYLOAD,2023-09-07 01:51:14,15.088459,0.0001219,53.2167,124.6321,92.9799,267.1333,8.1876e-05,1.016e-05,0.0,0 STARLINK-5146,1 54073U 22136Y   23250.07725197  .00001016  00000-0  81876-4 0  9995,2 54073  53.2167 124.6321 0001219  92.9799 267.1333 15.08845900 49325,6917.862,95.437,540.571,538.884,0.0
54073.0,STARLINK-5146,PAYLOAD,2023-09-08 00:06:39,15.08836957,0.0001524,53.2162,120.4695,93.3249,266.7917,1.2413e-05,-9e-07,0.0,0 STARLINK-5146,1 54073U 22136Y   23251.00461962 -.00000090  00000-0  12413-4 0  9999,2 54073  53.2162 120.4695 0001524  93.3249 266.7917 15.08836957 49462,6917.89,95.438,540.809,538.7,0.0
54073.0,STARLINK-5146,PAYLOAD,2023-09-08 22:22:02,15.08849412,0.0001133,53.2162,116.3063,90.3002,269.812,-1.2983e-05,-4.95e-06,0.0,0 STARLINK-5146,1 54073U 22136Y   23251.93197429 -.00000495  00000-0 -12983-4 0  9997,2 54073  53.2162 116.3063 0001133  90.3002 269.8120 15.08849412 49128,6917.852,95.437,540.5,538.933,0.0
54073.0,STARLINK-5146,PAYLOAD,2023-09-09 01:32:48,15.08847834,0.0001231,53.2171,115.7119,92.8604,267.2529,4.2483e-05,3.88e-06,0.0,0 STARLINK-5146,1 54073U 22136Y   23252.06445331  .00000388  00000-0  42483-4 0  9997,2 54073  53.2171 115.7119 0001231  92.8604 267.2529 15.08847834 49623,6917.856,95.437,540.573,538.87,0.0
54073.0,STARLINK-5146,PAYLOAD,2023-09-09 07:54:21,15.08837492,0.0001301,53.2152,114.5217,94.8548,265.2592,6.2503e-05,7.07e-06,0.0,0 STARLINK-5146,1 54073U 22136Y   23252.32941916  .00000707  00000-0  62503-4 0  9996,2 54073  53.2152 114.5217 0001301  94.8548 265.2592 15.08837492 49666,6917.888,95.438,540.653,538.853,0.0
54073.0,STARLINK-5146,PAYLOAD,2023-09-09 19:02:04,15.08826034,0.000112,53.2159,112.4403,87.1407,272.9714,0.0001324,1.819e-05,0.0,0 STARLINK-5146,1 54073U 22136Y   23252.79310561  .00001819  00000-0  13240-3 0  9991,2 54073  53.2159 112.4403 0001120  87.1407 272.9714 15.08826034 49734,6917.923,95.438,540.563,539.013,0.0
54073.0,STARLINK-5146,PAYLOAD,2023-09-09 23:48:13,15.08837383,0.0001352,53.2171,111.5477,85.9541,274.1606,6.857e-05,8.03e-06,0.0,0 STARLINK-5146,1 54073U 22136Y   23252.99182275  .00000803  00000-0  68570-4 0  9991,2 54073  53.2171 111.5477 0001352  85.9541 274.1606 15.08837383 49767,6917.888,95.438,540.689,538.818,0.0
54073.0,STARLINK-5146,PAYLOAD,2023-09-10 14:06:41,15.08840039,0.0001428,53.2167,108.8714,104.2781,255.837,5.1163e-05,5.26e-06,0.0,0 STARLINK-5146,1 54073U 22136Y   23253.58798257  .00000526  00000-0  51163-4 0  9992,2 54073  53.2167 108.8714 0001428 104.2781 255.8370 15.08840039 49373,6917.88,95.438,540.733,538.757,0.0
54073.0,STARLINK-5146,PAYLOAD,2023-09-11 07:35:56,15.08843501,0.0001258,53.2164,105.6001,96.9631,263.1504,-1.579e-05,-5.39e-06,0.0,0 STARLINK-5146,1 54073U 22136Y   23254.31662179 -.00000539  00000-0 -15790-4 0  9999,2 54073  53.2164 105.6001 0001258  96.9631 263.1504 15.08843501 49969,6917.87,95.437,540.605,538.864,0.0
54073.0,STARLINK-5146,PAYLOAD,2023-09-11 23:29:47,15.08843902,0.0001214,53.2162,102.6266,92.725,267.3881,8.8733e-05,1.125e-05,0.0,0 STARLINK-5146,1 54073U 22136Y   23254.97902004  .00001125  00000-0  88733-4 0  9992,2 54073  53.2162 102.6266 0001214  92.7250 267.3881 15.08843902 49587,6917.868,95.437,540.573,538.894,0.0
54073.0,STARLINK-5146,PAYLOAD,2023-09-12 16:59:02,15.08839712,0.0001172,53.2161,99.3555,91.117,268.9956,4.181e-05,3.78e-06,0.0,0 STARLINK-5146,1 54073U 22136Y   23255.70766450  .00000378  00000-0  41810-4 0  9991,2 54073  53.2161  99.3555 0001172  91.1170 268.9956 15.08839712 50177,6917.881,95.438,540.557,538.935,0.0
54073.0,STARLINK-5146,PAYLOAD,2023-09-12 20:09:48,15.08844414,0.0001188,53.2161,98.7607,91.3951,268.7177,8.2198e-05,1.021e-05,0.0,0 STARLINK-5146,1 54073U 22136Y   23255.84014060  .00001021  00000-0  82198-4 0  9999,2 54073  53.2161  98.7607 0001188  91.3951 268.7177 15.08844414 49710,6917.867,95.437,540.554,538.91,0.0
54073.0,STARLINK-5146,PAYLOAD,2023-09-13 18:25:11,15.08851532,0.0001289,53.2171,94.5956,98.766,261.3478,0.00011417,1.53e-05,0.0,0 STARLINK-5146,1 54073U 22136Y   23256.76749241  .00001530  00000-0  11417-3 0  9997,2 54073  53.2171  94.5956 0001289  98.7660 261.3478 15.08851532 50334,6917.845,95.437,540.602,538.818,0.0
54073.0,STARLINK-5146,PAYLOAD,2023-09-13 20:00:34,15.08850795,0.00013,53.2167,94.304,86.7732,273.3409,0.00014208,1.975e-05,0.0,0 STARLINK-5146,1 54073U 22136Y   23256.83373311  .00001975  00000-0  14208-3 0  9990,2 54073  53.2167  94.3040 0001300  86.7732 273.3409 15.08850795 49865,6917.847,95.437,540.612,538.813,0.0
54073.0,STARLINK-5146,PAYLOAD,2023-09-14 13:29:50,15.08829682,0.0001014,53.2172,91.0308,80.4038,279.7068,-4.8694e-05,-1.062e-05,0.0,0 STARLINK-5146,1 54073U 22136Y   23257.56239256 -.00001062  00000-0 -48694-4 0  9996,2 54073  53.2172  91.0308 0001014  80.4038 279.7068 15.08829682 49978,6917.912,95.438,540.478,539.075,0.0
54073.0,STARLINK-5146,PAYLOAD,2023-09-14 18:15:59,15.08833488,0.0001185,53.2168,90.1378,89.0577,271.0551,-1.2426e-05,-4.86e-06,0.0,0 STARLINK-5146,1 54073U 22136Y   23257.76111026 -.00000486  00000-0 -12426-4 0  9995,2 54073  53.2168  90.1378 0001185  89.0577 271.0551 15.08833488 50481,6917.9,95.438,540.585,538.946,0.0
54073.0,STARLINK-5146,PAYLOAD,2023-09-14 19:51:22,15.08834005,0.0001228,53.2169,89.84,93.9893,266.1239,-5.9128e-06,-3.82e-06,0.0,0 STARLINK-5146,1 54073U 22136Y   23257.82734951 -.00000382  00000-0 -59128-5 0  9996,2 54073  53.2169  89.8400 0001228  93.9893 266.1239 15.08834005 50019,6917.899,95.438,540.613,538.914,0.0
54073.0,STARLINK-5146,PAYLOAD,2023-09-15 05:23:41,15.08839181,0.0001224,53.2172,88.0561,91.5444,268.5688,3.4691e-05,2.64e-06,0.0,0 STARLINK-5146,1 54073U 22136Y   23258.22478714  .00000264  00000-0  34691-4 0  9997,2 54073  53.2172  88.0561 0001224  91.5444 268.5688 15.08839181 50557,6917.883,95.438,540.595,538.901,0.0
54073.0,STARLINK-5146,PAYLOAD,2023-09-15 13:20:37,15.08837711,0.0001229,53.2163,86.5694,91.4921,268.6212,-3.4888e-05,-8.43e-06,0.0,0 STARLINK-5146,1 54073U 22136Y   23258.55598558 -.00000843  00000-0 -34888-4 0  9995,2 54073  53.2163  86.5694 0001229  91.4921 268.6212 15.08837711 50125,6917.887,95.438,540.603,538.902,0.0
54073.0,STARLINK-5146,PAYLOAD,2023-09-16 13:11:24,15.08836823,0.0001286,53.217,82.1094,95.5888,264.5251,0.00018506,2.658e-05,0.0,0 STARLINK-5146,1 54073U 22136Y   23259.54958950  .00002658  00000-0  18506-3 0  9993,2 54073  53.2170  82.1094 0001286  95.5888 264.5251 15.08836823 50276,6917.89,95.438,540.645,538.865,0.0
54073.0,STARLINK-5146,PAYLOAD,2023-09-16 17:57:33,15.08839097,0.0001289,53.217,81.2174,95.4978,264.6162,0.00019796,2.864e-05,0.0,0 STARLINK-5146,1 54073U 22136Y   23259.74830906  .00002864  00000-0  19796-3 0  9996,2 54073  53.2170  81.2174 0001289  95.4978 264.6162 15.08839097 50781,6917.883,95.438,540.64,538.856,0.0
54073.0,STARLINK-5146,PAYLOAD,2023-09-17 13:02:11,15.08843257,0.0001318,53.217,77.649,94.1925,265.9218,0.00013967,1.936e-05,0.0,0 STARLINK-5146,1 54073U 22136Y   23260.54318717  .00001936  00000-0  13967-3 0  9990,2 54073  53.2170  77.6490 0001318  94.1925 265.9218 15.08843257 50422,6917.87,95.437,540.647,538.824,0.0
54073.0,STARLINK-5146,PAYLOAD,2023-09-17 19:23:43,15.08847669,0.0001267,53.2171,76.4592,91.5478,268.566,0.00016268,2.303e-05,0.0,0 STARLINK-5146,1 54073U 22136Y   23260.80814533  .00002303  00000-0  16268-3 0  9992,2 54073  53.2171  76.4592 0001267  91.5478 268.5660 15.08847669 50948,6917.857,95.437,540.598,538.845,0.0
54073.0,STARLINK-5146,PAYLOAD,2023-09-18 11:17:35,15.08839823,0.0001248,53.2171,73.4859,85.9643,274.1492,0.00010123,1.324e-05,0.0,0 STARLINK-5146,1 54073U 22136Y   23261.47054950  .00001324  00000-0  10123-3 0  9991,2 54073  53.2171  73.4859 0001248  85.9643 274.1492 15.08839823 50568,6917.881,95.438,540.609,538.883,0.0
54073.0,STARLINK-5146,PAYLOAD,2023-09-18 17:39:08,15.08839447,0.0001201,53.2165,72.2957,86.3126,273.8003,9.4871e-05,1.222e-05,0.0,0 STARLINK-5146,1 54073U 22136Y   23261.73550983  .00001222  00000-0  94871-4 0  9997,2 54073  53.2165  72.2957 0001201  86.3126 273.8003 15.08839447 51081,6917.882,95.438,540.578,538.916,0.0
54073.0,STARLINK-5146,PAYLOAD,2023-09-18 19:14:31,15.08844385,0.000127,53.2169,71.9985,84.5147,275.599,0.00012614,1.72e-05,0.0,0 STARLINK-5146,1 54073U 22136Y   23261.80174771  .00001720  00000-0  12614-3 0  9999,2 54073  53.2169  71.9985 0001270  84.5147 275.5990 15.08844385 50610,6917.867,95.437,540.611,538.853,0.0
54073.0,STARLINK-5146,PAYLOAD,2023-09-19 17:29:54,15.08853753,0.0001294,53.2167,67.8348,92.0458,268.0683,0.00021712,3.171e-05,0.0,0 STARLINK-5146,1 54073U 22136Y   23262.72910100  .00003171  00000-0  21712-3 0  9996,2 54073  53.2167  67.8348 0001294  92.0458 268.0683 15.08853753 51234,6917.838,95.437,540.599,538.808,0.0
54073.0,STARLINK-5146,PAYLOAD,2023-09-20 10:59:09,15.08837124,0.0001317,53.217,64.5656,81.7967,278.3174,8.2191e-05,1.02e-05,0.0,0 STARLINK-5146,1 54073U 22136Y   23263.45775206  .00001020  00000-0  82191-4 0  9993,2 54073  53.2170  64.5656 0001317  81.7967 278.3174 15.08837124 51345,6917.889,95.438,540.665,538.843,0.0
54073.0,STARLINK-5146,PAYLOAD,2023-09-20 14:09:56,15.08833651,0.0001377,53.2169,63.9706,69.9872,290.1268,1.1765e-05,-1.01e-06,0.0,0 STARLINK-5146,1 54073U 22136Y   23263.59023408 -.00000101  00000-0  11765-4 0  9997,2 54073  53.2169  63.9706 0001377  69.9872 290.1268 15.08833651 50886,6917.9,95.438,540.717,538.812,0.0
